ONEWEB-0582             
1 54649U 22166H   26066.54666788  .00000007  00000+0 -14178-4 0  9997
2 54649  87.9162 264.2444 0001173  85.0671 275.0597 13.21825767158098
ONEWEB-0583             
1 54650U 22166J   26066.55817855 -.00000040  00000+0 -12895-3 0  9994
2 54650  87.9164 264.2654 0001477  90.5239 269.6065 13.21826361158105
ONEWEB-0584             
1 54651U 22166K   26066.57793526  .00000000  00000+0 -30673-4 0  9995
2 54651  87.9162 264.2488 0001342  81.9914 278.1372 13.21826214158095
ONEWEB-0585             
1 54652U 22166L   26066.60260474 -.00000012  00000+0 -59672-4 0  9995
2 54652  87.9163 264.2284 0001753  91.2859 268.8476 13.21823665158109
ONEWEB-0586             
1 54653U 22166M   26066.54008845 -.00000023  00000+0 -87486-4 0  9997
2 54653  87.9163 264.2665 0001419  92.7157 267.4139 13.21824899158098
ONEWEB-0587             
1 54654U 22166N   26066.54993985  .00000063  00000+0  12033-3 0  9993
2 54654  87.9174 264.2279 0002000  95.1964 264.9398 13.21828022158251
ONEWEB-0589             
1 54655U 22166P   26066.61246962 -.00000031  00000+0 -10738-3 0  9995
2 54655  87.9161 264.2410 0000933  64.2136 295.9094 13.21826717158128
ONEWEB-0590             
1 54656U 22166Q   26066.56132924  .00000040  00000+0  65617-4 0  9997
2 54656  87.9170 264.2310 0001800  77.2479 282.8856 13.21827343158101
ONEWEB-0591             
1 54657U 22166R   26066.57298799  .00000004  00000+0 -21472-4 0  9994
2 54657  87.9166 264.2502 0001609  88.3193 271.8126 13.21824097158137
ONEWEB-0592             
1 54658U 22166S   26066.57627660  .00000035  00000+0  53701-4 0  9991
2 54658  87.9172 264.2202 0001575  89.0347 271.0967 13.21827768158013
ONEWEB-0593             
1 54659U 22166T   26066.59932061 -.00000039  00000+0 -12623-3 0  9991
2 54659  87.9166 264.2348 0001449  94.0868 266.0431 13.21826373158125
ONEWEB-0594             
1 54660U 22166U   26066.61905081 -.00000293  00000+0 -73994-3 0  9998
2 54660  87.9163 264.2488 0001692  93.2899 266.8429 13.21825377158144
ONEWEB-0595             
1 54661U 22166V   26066.59601726 -.00000034  00000+0 -11429-3 0  9993
2 54661  87.9170 264.2260 0001802  90.8240 269.3101 13.21827904158117
ONEWEB-0596             
1 54662U 22166W   26066.56968990  .00000010  00000+0 -77218-5 0  9993
2 54662  87.9166 264.2490 0001672  90.2072 269.9254 13.21823589158110
ONEWEB-0597             
1 54663U 22166X   26066.55160159  .00000003  00000+0 -25000-4 0  9997
2 54663  87.9164 264.2573 0001464  89.3583 270.7718 13.21826090158111
ONEWEB-0600             
1 54664U 22166Y   26066.60918494 -.00000039  00000+0 -12496-3 0  9991
2 54664  87.9163 264.2370 0001497  99.0481 261.0822 13.21823984158092
ONEWEB-0601             
1 54665U 22166Z   26066.60097049 -.00000009  00000+0 -54222-4 0  9997
2 54665  87.9162 264.2560 0001308  85.5906 274.5378 13.21826440158282
