[{"OBJECT_NAME":"ONEWEB-0582","OBJECT_ID":"2022-166H","EPOCH":"2026-03-07T13:07:12.104832","MEAN_MOTION":13.21825767,"ECCENTRICITY":0.00011733,"INCLINATION":87.9162,"RA_OF_ASC_NODE":264.2444,"ARG_OF_PERICENTER":85.0671,"MEAN_ANOMALY":275.0597,"EPHEMERIS_TYPE":0,"CLASSIFICATION_TYPE":"U","NORAD_CAT_ID":54649,"ELEMENT_SET_NO":999,"REV_AT_EPOCH":15809,"BSTAR":-1.4177885e-5,"MEAN_MOTION_DOT":7.0e-8,"MEAN_MOTION_DDOT":0},{"OBJECT_NAME":"ONEWEB-0583","OBJECT_ID":"2022-166J","EPOCH":"2026-03-07T13:23:46.626720","MEAN_MOTION":13.21826361,"ECCENTRICITY":0.00014776,"INCLINATION":87.9164,"RA_OF_ASC_NODE":264.2654,"ARG_OF_PERICENTER":90.5239,"MEAN_ANOMALY":269.6065,"EPHEMERIS_TYPE":0,"CLASSIFICATION_TYPE":"U","NORAD_CAT_ID":54650,"ELEMENT_SET_NO":999,"REV_AT_EPOCH":15810,"BSTAR":-0.00012894915,"MEAN_MOTION_DOT":-4.0e-7,"MEAN_MOTION_DDOT":0},{"OBJECT_NAME":"ONEWEB-0584","OBJECT_ID":"2022-166K","EPOCH":"2026-03-07T13:52:13.606464","MEAN_MOTION":13.21826214,"ECCENTRICITY":0.0001342,"INCLINATION":87.9162,"RA_OF_ASC_NODE":264.2488,"ARG_OF_PERICENTER":81.9914,"MEAN_ANOMALY":278.1372,"EPHEMERIS_TYPE":0,"CLASSIFICATION_TYPE":"U","NORAD_CAT_ID":54651,"ELEMENT_SET_NO":999,"REV_AT_EPOCH":15809,"BSTAR":-3.0673176e-5,"MEAN_MOTION_DOT":0,"MEAN_MOTION_DDOT":0},{"OBJECT_NAME":"ONEWEB-0585","OBJECT_ID":"2022-166L","EPOCH":"2026-03-07T14:27:45.049536","MEAN_MOTION":13.21823665,"ECCENTRICITY":0.00017538,"INCLINATION":87.9163,"RA_OF_ASC_NODE":264.2284,"ARG_OF_PERICENTER":91.2859,"MEAN_ANOMALY":268.8476,"EPHEMERIS_TYPE":0,"CLASSIFICATION_TYPE":"U","NORAD_CAT_ID":54652,"ELEMENT_SET_NO":999,"REV_AT_EPOCH":15810,"BSTAR":-5.9672213e-5,"MEAN_MOTION_DOT":-1.2e-7,"MEAN_MOTION_DDOT":0},{"OBJECT_NAME":"ONEWEB-0586","OBJECT_ID":"2022-166M","EPOCH":"2026-03-07T12:57:43.642080","MEAN_MOTION":13.21824899,"ECCENTRICITY":0.0001419,"INCLINATION":87.9163,"RA_OF_ASC_NODE":264.2665,"ARG_OF_PERICENTER":92.7157,"MEAN_ANOMALY":267.4139,"EPHEMERIS_TYPE":0,"CLASSIFICATION_TYPE":"U","NORAD_CAT_ID":54653,"ELEMENT_SET_NO":999,"REV_AT_EPOCH":15809,"BSTAR":-8.7485752e-5,"MEAN_MOTION_DOT":-2.3e-7,"MEAN_MOTION_DDOT":0},{"OBJECT_NAME":"ONEWEB-0587","OBJECT_ID":"2022-166N","EPOCH":"2026-03-07T13:11:54.803040","MEAN_MOTION":13.21828022,"ECCENTRICITY":0.00020003,"INCLINATION":87.9174,"RA_OF_ASC_NODE":264.2279,"ARG_OF_PERICENTER":95.1964,"MEAN_ANOMALY":264.9398,"EPHEMERIS_TYPE":0,"CLASSIFICATION_TYPE":"U","NORAD_CAT_ID":54654,"ELEMENT_SET_NO":999,"REV_AT_EPOCH":15825,"BSTAR":0.00012032929,"MEAN_MOTION_DOT":6.3e-7,"MEAN_MOTION_DDOT":0},{"OBJECT_NAME":"ONEWEB-0589","OBJECT_ID":"2022-166P","EPOCH":"2026-03-07T14:41:57.375168","MEAN_MOTION":13.21826717,"ECCENTRICITY":9.338e-5,"INCLINATION":87.9161,"RA_OF_ASC_NODE":264.241,"ARG_OF_PERICENTER":64.2136,"MEAN_ANOMALY":295.9094,"EPHEMERIS_TYPE":0,"CLASSIFICATION_TYPE":"U","NORAD_CAT_ID":54655,"ELEMENT_SET_NO":999,"REV_AT_EPOCH":15812,"BSTAR":-0.00010737953,"MEAN_MOTION_DOT":-3.1e-7,"MEAN_MOTION_DDOT":0},{"OBJECT_NAME":"ONEWEB-0590","OBJECT_ID":"2022-166Q","EPOCH":"2026-03-07T13:28:18.846336","MEAN_MOTION":13.21827343,"ECCENTRICITY":0.00018007,"INCLINATION":87.917,"RA_OF_ASC_NODE":264.231,"ARG_OF_PERICENTER":77.2479,"MEAN_ANOMALY":282.8856,"EPHEMERIS_TYPE":0,"CLASSIFICATION_TYPE":"U","NORAD_CAT_ID":54656,"ELEMENT_SET_NO":999,"REV_AT_EPOCH":15810,"BSTAR":6.561655e-5,"MEAN_MOTION_DOT":4.0e-7,"MEAN_MOTION_DDOT":0},{"OBJECT_NAME":"ONEWEB-0591","OBJECT_ID":"2022-166R","EPOCH":"2026-03-07T13:45:06.162336","MEAN_MOTION":13.21824097,"ECCENTRICITY":0.00016099,"INCLINATION":87.9166,"RA_OF_ASC_NODE":264.2502,"ARG_OF_PERICENTER":88.3193,"MEAN_ANOMALY":271.8126,"EPHEMERIS_TYPE":0,"CLASSIFICATION_TYPE":"U","NORAD_CAT_ID":54657,"ELEMENT_SET_NO":999,"REV_AT_EPOCH":15813,"BSTAR":-2.1472095e-5,"MEAN_MOTION_DOT":4.0e-8,"MEAN_MOTION_DDOT":0},{"OBJECT_NAME":"ONEWEB-0592","OBJECT_ID":"2022-166S","EPOCH":"2026-03-07T13:49:50.298240","MEAN_MOTION":13.21827768,"ECCENTRICITY":0.00015757,"INCLINATION":87.9172,"RA_OF_ASC_NODE":264.2202,"ARG_OF_PERICENTER":89.0347,"MEAN_ANOMALY":271.0967,"EPHEMERIS_TYPE":0,"CLASSIFICATION_TYPE":"U","NORAD_CAT_ID":54658,"ELEMENT_SET_NO":999,"REV_AT_EPOCH":15801,"BSTAR":5.3700641e-5,"MEAN_MOTION_DOT":3.5e-7,"MEAN_MOTION_DDOT":0},{"OBJECT_NAME":"ONEWEB-0593","OBJECT_ID":"2022-166T","EPOCH":"2026-03-07T14:23:01.300704","MEAN_MOTION":13.21826373,"ECCENTRICITY":0.00014495,"INCLINATION":87.9166,"RA_OF_ASC_NODE":264.2348,"ARG_OF_PERICENTER":94.0868,"MEAN_ANOMALY":266.0431,"EPHEMERIS_TYPE":0,"CLASSIFICATION_TYPE":"U","NORAD_CAT_ID":54659,"ELEMENT_SET_NO":999,"REV_AT_EPOCH":15812,"BSTAR":-0.00012623279,"MEAN_MOTION_DOT":-3.9e-7,"MEAN_MOTION_DDOT":0},{"OBJECT_NAME":"ONEWEB-0594","OBJECT_ID":"2022-166U","EPOCH":"2026-03-07T14:51:25.989984","MEAN_MOTION":13.21825377,"ECCENTRICITY":0.00016922,"INCLINATION":87.9163,"RA_OF_ASC_NODE":264.2488,"ARG_OF_PERICENTER":93.2899,"MEAN_ANOMALY":266.8429,"EPHEMERIS_TYPE":0,"CLASSIFICATION_TYPE":"U","NORAD_CAT_ID":54660,"ELEMENT_SET_NO":999,"REV_AT_EPOCH":15814,"BSTAR":-0.00073993845,"MEAN_MOTION_DOT":-2.93e-6,"MEAN_MOTION_DDOT":0},{"OBJECT_NAME":"ONEWEB-0595","OBJECT_ID":"2022-166V","EPOCH":"2026-03-07T14:18:15.891264","MEAN_MOTION":13.21827904,"ECCENTRICITY":0.00018026,"INCLINATION":87.917,"RA_OF_ASC_NODE":264.226,"ARG_OF_PERICENTER":90.824,"MEAN_ANOMALY":269.3101,"EPHEMERIS_TYPE":0,"CLASSIFICATION_TYPE":"U","NORAD_CAT_ID":54661,"ELEMENT_SET_NO":999,"REV_AT_EPOCH":15811,"BSTAR":-0.00011428809,"MEAN_MOTION_DOT":-3.4e-7,"MEAN_MOTION_DDOT":0},{"OBJECT_NAME":"ONEWEB-0596","OBJECT_ID":"2022-166W","EPOCH":"2026-03-07T13:40:21.207360","MEAN_MOTION":13.21823589,"ECCENTRICITY":0.00016727,"INCLINATION":87.9166,"RA_OF_ASC_NODE":264.249,"ARG_OF_PERICENTER":90.2072,"MEAN_ANOMALY":269.9254,"EPHEMERIS_TYPE":0,"CLASSIFICATION_TYPE":"U","NORAD_CAT_ID":54662,"ELEMENT_SET_NO":999,"REV_AT_EPOCH":15811,"BSTAR":-7.721775e-6,"MEAN_MOTION_DOT":1.0e-7,"MEAN_MOTION_DDOT":0},{"OBJECT_NAME":"ONEWEB-0597","OBJECT_ID":"2022-166X","EPOCH":"2026-03-07T13:14:18.377376","MEAN_MOTION":13.2182609,"ECCENTRICITY":0.00014647,"INCLINATION":87.9164,"RA_OF_ASC_NODE":264.2573,"ARG_OF_PERICENTER":89.3583,"MEAN_ANOMALY":270.7718,"EPHEMERIS_TYPE":0,"CLASSIFICATION_TYPE":"U","NORAD_CAT_ID":54663,"ELEMENT_SET_NO":999,"REV_AT_EPOCH":15811,"BSTAR":-2.5000159e-5,"MEAN_MOTION_DOT":3.0e-8,"MEAN_MOTION_DDOT":0},{"OBJECT_NAME":"ONEWEB-0600","OBJECT_ID":"2022-166Y","EPOCH":"2026-03-07T14:37:13.578816","MEAN_MOTION":13.21823984,"ECCENTRICITY":0.00014979,"INCLINATION":87.9163,"RA_OF_ASC_NODE":264.237,"ARG_OF_PERICENTER":99.0481,"MEAN_ANOMALY":261.0822,"EPHEMERIS_TYPE":0,"CLASSIFICATION_TYPE":"U","NORAD_CAT_ID":54664,"ELEMENT_SET_NO":999,"REV_AT_EPOCH":15809,"BSTAR":-0.00012496075,"MEAN_MOTION_DOT":-3.9e-7,"MEAN_MOTION_DDOT":0},{"OBJECT_NAME":"ONEWEB-0601","OBJECT_ID":"2022-166Z","EPOCH":"2026-03-07T14:25:23.850336","MEAN_MOTION":13.2182644,"ECCENTRICITY":0.00013087,"INCLINATION":87.9162,"RA_OF_ASC_NODE":264.256,"ARG_OF_PERICENTER":85.5906,"MEAN_ANOMALY":274.5378,"EPHEMERIS_TYPE":0,"CLASSIFICATION_TYPE":"U","NORAD_CAT_ID":54665,"ELEMENT_SET_NO":999,"REV_AT_EPOCH":15828,"BSTAR":-5.4221541e-5,"MEAN_MOTION_DOT":-9.0e-8,"MEAN_MOTION_DDOT":0}]
